HIMAWARI-8              
1 40267U 14060A   24120.19771505 -.00000268  00000+0  00000+0 0  9999
2 40267   0.0503 114.3012 0001124 299.3344  15.8575  1.00270601 35054
